[Satellite]
VERSION=1.1
NAME=AEROCUBE 6B
NICKNAME=AEROCUBE 6B
TLE1=1 40046U 14033AN  20157.62538680  .00000259  00000-0  44317-4 0  9997
TLE2=2 40046  97.7275  19.1639 0057838  28.8228 331.6157 14.75561883320743
STATUS=0
